[{"OBJECT_NAME":"STARLINK-3334","OBJECT_ID":"2022-001W","EPOCH":"2026-03-09T13:51:45.308736","MEAN_MOTION":15.08838666,"ECCENTRICITY":9.94e-5,"INCLINATION":53.2176,"RA_OF_ASC_NODE":169.6234,"ARG_OF_PERICENTER":110.1015,"MEAN_ANOMALY":250.0084,"EPHEMERIS_TYPE":0,"CLASSIFICATION_TYPE":"U","NORAD_CAT_ID":50823,"ELEMENT_SET_NO":999,"REV_AT_EPOCH":23039,"BSTAR":-3.3951e-5,"MEAN_MOTION_DOT":-8.28e-6,"MEAN_MOTION_DDOT":0},{"OBJECT_NAME":"CZ-6A DEB","OBJECT_ID":"2024-140ZB","EPOCH":"2026-03-09T13:53:53.181600","MEAN_MOTION":15.04943741,"ECCENTRICITY":0.0099448,"INCLINATION":89.0521,"RA_OF_ASC_NODE":283.407,"ARG_OF_PERICENTER":138.6562,"MEAN_ANOMALY":222.2259,"EPHEMERIS_TYPE":0,"CLASSIFICATION_TYPE":"U","NORAD_CAT_ID":61434,"ELEMENT_SET_NO":999,"REV_AT_EPOCH":8386,"BSTAR":0.0022399,"MEAN_MOTION_DOT":0.00035579,"MEAN_MOTION_DDOT":0}]
